{
    "links": {
        "self": "http://www.neowsapp.com/rest/v1/neo/3774101?api_key=iIulBulltgU6a56xZRHN4H3l9WmuAYTsLGpBGhQ2"
    },
    "id": "3774101",
    "neo_reference_id": "3774101",
    "name": "(2017 HY3)",
    "designation": "2017 HY3",
    "nasa_jpl_url": "http://ssd.jpl.nasa.gov/sbdb.cgi?sstr=3774101",
    "absolute_magnitude_h": 25.6,
    "estimated_diameter": {
        "kilometers": {
            "estimated_diameter_min": 0.0201629919,
            "estimated_diameter_max": 0.0450858206
        },
        "meters": {
            "estimated_diameter_min": 20.1629919443,
            "estimated_diameter_max": 45.0858206172
        },
        "miles": {
            "estimated_diameter_min": 0.0125286985,
            "estimated_diameter_max": 0.0280150214
        },
        "feet": {
            "estimated_diameter_min": 66.1515504905,
            "estimated_diameter_max": 147.9193637137
        }
    },
    "is_potentially_hazardous_asteroid": false,
    "close_approach_data": [
        {
            "close_approach_date": "2017-04-26",
            "close_approach_date_full": "2017-Apr-26 07:33",
            "epoch_date_close_approach": 1493191980000,
            "relative_velocity": {
                "kilometers_per_second": "17.077618068",
                "kilometers_per_hour": "61479.4250447618",
                "miles_per_hour": "38200.9238562855"
            },
            "miss_distance": {
                "astronomical": "0.0065459746",
                "lunar": "2.5463841194",
                "kilometers": "979263.857234102",
                "miles": "608486.3449985276"
            },
            "orbiting_body": "Earth"
        },
        {
            "close_approach_date": "2017-04-26",
            "close_approach_date_full": "2017-Apr-26 10:13",
            "epoch_date_close_approach": 1493201580000,
            "relative_velocity": {
                "kilometers_per_second": "17.323020254",
                "kilometers_per_hour": "62362.8729145786",
                "miles_per_hour": "38749.8640062836"
            },
            "miss_distance": {
                "astronomical": "0.0070589787",
                "lunar": "2.7459427143",
                "kilometers": "1056008.177895369",
                "miles": "656173.0545953322"
            },
            "orbiting_body": "Moon"
        }
    ],
    "orbital_data": {
        "orbit_id": "3",
        "orbit_determination_date": "2017-04-28 06:20:08",
        "first_observation_date": "2017-04-24",
        "last_observation_date": "2017-04-26",
        "data_arc_in_days": 2,
        "observations_used": 77,
        "orbit_uncertainty": "7",
        "minimum_orbit_intersection": ".000167934",
        "jupiter_tisserand_invariant": "3.230",
        "epoch_osculation": "2459000.5",
        "eccentricity": ".6004428921536195",
        "semi_major_axis": "2.32313729839038",
        "inclination": "22.09760550071331",
        "ascending_node_longitude": "36.54145160674717",
        "orbital_period": "1293.33414428435",
        "perihelion_distance": ".9282260200749144",
        "perihelion_argument": "217.5399210864163",
        "aphelion_distance": "3.718048576705847",
        "perihelion_time": "2459192.270880761986",
        "mean_anomaly": "306.6205099591521",
        "mean_motion": ".2783503409315784",
        "equinox": "J2000",
        "orbit_class": {
            "orbit_class_type": "APO",
            "orbit_class_description": "Near-Earth asteroid orbits which cross the Earth’s orbit similar to that of 1862 Apollo",
            "orbit_class_range": "a (semi-major axis) > 1.0 AU; q (perihelion) < 1.017 AU"
        }
    },
    "is_sentry_object": false
}